{
  "type": "FeatureCollection",
  "generator": "overpass-turbo",
  "copyright": "The data included in this document is from www.openstreetmap.org. The data is made available under ODbL.",
  "timestamp": "2025-10-11T02:31:27Z",
  "features": [
    {
      "type": "Feature",
      "properties": {
        "@id": "way/287518494",
        "amenity": "cafe",
        "building": "yes",
        "cuisine": "hot_dog;fika",
        "outdoor_seating": "yes",
        "toilets": "yes",
        "@geometry": "center"
      },
      "geometry": {
        "type": "Point",
        "coordinates": [
          12.5153735,
          57.9210561
        ]
      },
      "id": "way/287518494"
    },
    {
      "type": "Feature",
      "properties": {
        "@id": "way/287589308",
        "amenity": "restaurant",
        "building": "yes",
        "cuisine": "pasta;pizza",
        "email": "info@dariccardo.se",
        "name": "Da Riccardo",
        "phone": "+46 725782890",
        "takeaway": "yes",
        "website": "https://www.dariccardo.se/",
        "@geometry": "center"
      },
      "geometry": {
        "type": "Point",
        "coordinates": [
          12.5403689,
          57.9207174
        ]
      },
      "id": "way/287589308"
    },
    {
      "type": "Feature",
      "properties": {
        "@id": "way/317948230",
        "amenity": "fast_food",
        "brand": "Max",
        "brand:wikidata": "Q1912172",
        "brand:wikipedia": "sv:Max Hamburgerrestauranger",
        "building": "yes",
        "cuisine": "burger",
        "name": "Max",
        "operator": "Max",
        "takeaway": "yes",
        "@geometry": "center"
      },
      "geometry": {
        "type": "Point",
        "coordinates": [
          12.5295714,
          57.9232682
        ]
      },
      "id": "way/317948230"
    },
    {
      "type": "Feature",
      "properties": {
        "@id": "way/436138537",
        "amenity": "fast_food",
        "building": "yes",
        "cuisine": "burger",
        "name": "Blå kiosken",
        "@geometry": "center"
      },
      "geometry": {
        "type": "Point",
        "coordinates": [
          12.5434259,
          57.930899
        ]
      },
      "id": "way/436138537"
    },
    {
      "type": "Feature",
      "properties": {
        "@id": "node/447805570",
        "amenity": "fast_food",
        "brand": "McDonald's",
        "brand:wikidata": "Q38076",
        "brand:wikipedia": "sv:McDonald's",
        "cuisine": "burger",
        "name": "McDonald's",
        "takeaway": "yes"
      },
      "geometry": {
        "type": "Point",
        "coordinates": [
          12.5293191,
          57.9256317
        ]
      },
      "id": "node/447805570"
    },
    {
      "type": "Feature",
      "properties": {
        "@id": "node/447805591",
        "amenity": "restaurant",
        "name": "Momenti Liberi"
      },
      "geometry": {
        "type": "Point",
        "coordinates": [
          12.5281003,
          57.931251
        ]
      },
      "id": "node/447805591"
    },
    {
      "type": "Feature",
      "properties": {
        "@id": "node/447805594",
        "amenity": "restaurant"
      },
      "geometry": {
        "type": "Point",
        "coordinates": [
          12.533499,
          57.9296925
        ]
      },
      "id": "node/447805594"
    },
    {
      "type": "Feature",
      "properties": {
        "@id": "node/447805600",
        "amenity": "restaurant"
      },
      "geometry": {
        "type": "Point",
        "coordinates": [
          12.5339804,
          57.9306986
        ]
      },
      "id": "node/447805600"
    },
    {
      "type": "Feature",
      "properties": {
        "@id": "node/447805605",
        "amenity": "restaurant"
      },
      "geometry": {
        "type": "Point",
        "coordinates": [
          12.5394441,
          57.9296754
        ]
      },
      "id": "node/447805605"
    },
    {
      "type": "Feature",
      "properties": {
        "@id": "node/447805607",
        "amenity": "restaurant"
      },
      "geometry": {
        "type": "Point",
        "coordinates": [
          12.5368464,
          57.9304535
        ]
      },
      "id": "node/447805607"
    },
    {
      "type": "Feature",
      "properties": {
        "@id": "node/447805609",
        "amenity": "restaurant",
        "name": "Bistro Bar Centro",
        "wheelchair": "yes"
      },
      "geometry": {
        "type": "Point",
        "coordinates": [
          12.5358165,
          57.93049
        ]
      },
      "id": "node/447805609"
    },
    {
      "type": "Feature",
      "properties": {
        "@id": "node/447805611",
        "amenity": "cafe",
        "contact:website": "https://www.nygrenscafe.se/",
        "indoor_seating": "yes",
        "name": "Nygrens Café",
        "opening_hours": "Mo-Fr 10:00-18:00; Sa 10:00-16:00; Su 11:00-16:00",
        "outdoor_seating": "yes"
      },
      "geometry": {
        "type": "Point",
        "coordinates": [
          12.5362362,
          57.9305346
        ]
      },
      "id": "node/447805611"
    },
    {
      "type": "Feature",
      "properties": {
        "@id": "node/447805612",
        "addr:city": "Alingsås",
        "addr:housenumber": "20",
        "addr:postcode": "44130",
        "addr:street": "Kungsgatan",
        "amenity": "restaurant",
        "delivery": "no",
        "email": "info@sallyscafe.se",
        "name": "Sally's Café Restaurang Vinbar",
        "opening_hours": "Mo-Th 08:00-18:00; Fr 08:00-18:00+; Sa 09:00-16:00",
        "phone": "+46 322 63 36 60",
        "website": "https://www.sallyscafe.se/"
      },
      "geometry": {
        "type": "Point",
        "coordinates": [
          12.5345776,
          57.9303258
        ]
      },
      "id": "node/447805612"
    },
    {
      "type": "Feature",
      "properties": {
        "@id": "node/447805613",
        "amenity": "cafe",
        "name": "Espresso House"
      },
      "geometry": {
        "type": "Point",
        "coordinates": [
          12.5354646,
          57.9301209
        ]
      },
      "id": "node/447805613"
    },
    {
      "type": "Feature",
      "properties": {
        "@id": "node/447805614",
        "amenity": "cafe"
      },
      "geometry": {
        "type": "Point",
        "coordinates": [
          12.548975,
          57.9286985
        ]
      },
      "id": "node/447805614"
    },
    {
      "type": "Feature",
      "properties": {
        "@id": "node/447805615",
        "amenity": "cafe"
      },
      "geometry": {
        "type": "Point",
        "coordinates": [
          12.5352843,
          57.9293735
        ]
      },
      "id": "node/447805615"
    },
    {
      "type": "Feature",
      "properties": {
        "@id": "node/447805616",
        "amenity": "restaurant"
      },
      "geometry": {
        "type": "Point",
        "coordinates": [
          12.5337909,
          57.9295375
        ]
      },
      "id": "node/447805616"
    },
    {
      "type": "Feature",
      "properties": {
        "@id": "node/447805617",
        "amenity": "restaurant"
      },
      "geometry": {
        "type": "Point",
        "coordinates": [
          12.5340312,
          57.9295011
        ]
      },
      "id": "node/447805617"
    },
    {
      "type": "Feature",
      "properties": {
        "@id": "node/447805618",
        "amenity": "cafe",
        "name": "Café Viola"
      },
      "geometry": {
        "type": "Point",
        "coordinates": [
          12.536829,
          57.929836
        ]
      },
      "id": "node/447805618"
    },
    {
      "type": "Feature",
      "properties": {
        "@id": "node/447805620",
        "addr:city": "Alingsås",
        "addr:housenumber": "26",
        "addr:postcode": "44130",
        "addr:street": "Drottninggatan",
        "amenity": "cafe",
        "cuisine": "cake;coffee_shop",
        "name": "Ekstedts Bageri & Cafe",
        "opening_hours": "Tu-Fr 07:00-18:00; Sa 08:00-15:00",
        "outdoor_seating": "garden",
        "phone": "+46 322 125 72",
        "website": "https://www.ekstedtsbageri.se/"
      },
      "geometry": {
        "type": "Point",
        "coordinates": [
          12.5350546,
          57.9310241
        ]
      },
      "id": "node/447805620"
    },
    {
      "type": "Feature",
      "properties": {
        "@id": "node/447805621",
        "amenity": "cafe"
      },
      "geometry": {
        "type": "Point",
        "coordinates": [
          12.5339196,
          57.9311508
        ]
      },
      "id": "node/447805621"
    },
    {
      "type": "Feature",
      "properties": {
        "@id": "node/615791375",
        "amenity": "restaurant",
        "name": "Fifis Taverna"
      },
      "geometry": {
        "type": "Point",
        "coordinates": [
          12.5563644,
          57.9137195
        ]
      },
      "id": "node/615791375"
    },
    {
      "type": "Feature",
      "properties": {
        "@id": "node/615791788",
        "amenity": "fast_food",
        "name": "Roma Pizzeria & Kiosk",
        "opening_hours": "Mo-Th 11:00-21:00; Fr 11:00-22:00; Sa, Su 12:00-22:00"
      },
      "geometry": {
        "type": "Point",
        "coordinates": [
          12.5527059,
          57.9216461
        ]
      },
      "id": "node/615791788"
    },
    {
      "type": "Feature",
      "properties": {
        "@id": "way/742001101",
        "amenity": "restaurant",
        "building": "yes",
        "name": "Gräfsnäs slottscafé",
        "website": "https://lindelov.eu/slottscafe-grafsnas",
        "@geometry": "center"
      },
      "geometry": {
        "type": "Point",
        "coordinates": [
          12.4943193,
          58.0775738
        ]
      },
      "id": "way/742001101"
    },
    {
      "type": "Feature",
      "properties": {
        "@id": "node/761586198",
        "amenity": "fast_food",
        "brand": "Sibylla",
        "brand:wikidata": "Q488643",
        "brand:wikipedia": "sv:Sibylla (snabbmatskedja)",
        "cuisine": "burger",
        "name": "Sibylla",
        "takeaway": "yes"
      },
      "geometry": {
        "type": "Point",
        "coordinates": [
          12.517255,
          57.9179271
        ]
      },
      "id": "node/761586198"
    },
    {
      "type": "Feature",
      "properties": {
        "@id": "node/761626964",
        "amenity": "restaurant",
        "leisure": "bowling",
        "name": "Stures"
      },
      "geometry": {
        "type": "Point",
        "coordinates": [
          12.5273924,
          57.9257997
        ]
      },
      "id": "node/761626964"
    },
    {
      "type": "Feature",
      "properties": {
        "@id": "node/791143552",
        "amenity": "fast_food",
        "name": "Bögens"
      },
      "geometry": {
        "type": "Point",
        "coordinates": [
          12.562339,
          57.9303352
        ]
      },
      "id": "node/791143552"
    },
    {
      "type": "Feature",
      "properties": {
        "@id": "node/928623511",
        "amenity": "cafe",
        "name": "Tallhyddan",
        "opening_hours": "closed"
      },
      "geometry": {
        "type": "Point",
        "coordinates": [
          12.5087253,
          57.9347273
        ]
      },
      "id": "node/928623511"
    },
    {
      "type": "Feature",
      "properties": {
        "@id": "node/1048897278",
        "amenity": "cafe",
        "name": "Brobacka Kaffestuga",
        "website": "https://brobackakaffestuga.se/",
        "wheelchair": "no"
      },
      "geometry": {
        "type": "Point",
        "coordinates": [
          12.4340691,
          57.9793778
        ]
      },
      "id": "node/1048897278"
    },
    {
      "type": "Feature",
      "properties": {
        "@id": "way/1115013060",
        "addr:city": "Alingsås",
        "addr:country": "SE",
        "addr:housenumber": "1",
        "addr:street": "Pumpgatan",
        "amenity": "restaurant",
        "building": "yes",
        "cuisine": "turkish",
        "diet:meat": "yes",
        "diet:vegetarian": "yes",
        "name": "Marmara",
        "@geometry": "center"
      },
      "geometry": {
        "type": "Point",
        "coordinates": [
          12.5572235,
          57.9405501
        ]
      },
      "id": "way/1115013060"
    },
    {
      "type": "Feature",
      "properties": {
        "@id": "way/1193220693",
        "amenity": "cafe",
        "building": "yes",
        "@geometry": "center"
      },
      "geometry": {
        "type": "Point",
        "coordinates": [
          12.441018,
          57.987149
        ]
      },
      "id": "way/1193220693"
    },
    {
      "type": "Feature",
      "properties": {
        "@id": "node/1773738709",
        "amenity": "restaurant"
      },
      "geometry": {
        "type": "Point",
        "coordinates": [
          12.5630701,
          57.9303498
        ]
      },
      "id": "node/1773738709"
    },
    {
      "type": "Feature",
      "properties": {
        "@id": "node/1853429584",
        "amenity": "restaurant",
        "cuisine": "international",
        "name": "Ohana"
      },
      "geometry": {
        "type": "Point",
        "coordinates": [
          12.5360605,
          57.9300477
        ]
      },
      "id": "node/1853429584"
    },
    {
      "type": "Feature",
      "properties": {
        "@id": "node/2843036390",
        "amenity": "restaurant"
      },
      "geometry": {
        "type": "Point",
        "coordinates": [
          12.5474006,
          57.8912498
        ]
      },
      "id": "node/2843036390"
    },
    {
      "type": "Feature",
      "properties": {
        "@id": "node/3172312799",
        "addr:country": "SE",
        "addr:housenumber": "3",
        "addr:postcode": "44130",
        "addr:street": "Magasinsgatan",
        "amenity": "restaurant",
        "check_date": "2022-10-23",
        "cuisine": "pizza",
        "name": "Pizzeria Franco Milano"
      },
      "geometry": {
        "type": "Point",
        "coordinates": [
          12.5315626,
          57.9284416
        ]
      },
      "id": "node/3172312799"
    },
    {
      "type": "Feature",
      "properties": {
        "@id": "node/3172312802",
        "amenity": "restaurant",
        "cuisine": "regional",
        "name": "Wallins Grill"
      },
      "geometry": {
        "type": "Point",
        "coordinates": [
          12.5325013,
          57.9293645
        ]
      },
      "id": "node/3172312802"
    },
    {
      "type": "Feature",
      "properties": {
        "@id": "node/3172312805",
        "addr:city": "Alingsås",
        "addr:housenumber": "21",
        "addr:postcode": "44130",
        "addr:street": "Kungsgatan",
        "addr:unit": "C",
        "amenity": "restaurant",
        "cuisine": "sushi;japanese",
        "name": "Yoki Sushi",
        "opening_hours": "Mo-Fr 11:00-20:00; Sa 12:00-20:00; Su 12:00-19:00",
        "phone": "+46 3226 43430"
      },
      "geometry": {
        "type": "Point",
        "coordinates": [
          12.5345184,
          57.9302075
        ]
      },
      "id": "node/3172312805"
    },
    {
      "type": "Feature",
      "properties": {
        "@id": "node/4343016309",
        "amenity": "restaurant",
        "name": "Restaurang Skåål",
        "outdoor_seating": "yes",
        "phone": "+46 32212727",
        "was:name": "Harrys",
        "website": "https://www.restaurangskaal.se/"
      },
      "geometry": {
        "type": "Point",
        "coordinates": [
          12.5337873,
          57.9276682
        ]
      },
      "id": "node/4343016309"
    },
    {
      "type": "Feature",
      "properties": {
        "@id": "node/4344993582",
        "amenity": "restaurant",
        "cuisine": "pizza"
      },
      "geometry": {
        "type": "Point",
        "coordinates": [
          12.5327687,
          57.9403658
        ]
      },
      "id": "node/4344993582"
    },
    {
      "type": "Feature",
      "properties": {
        "@id": "node/4958269434",
        "amenity": "cafe",
        "name": "Café Reval"
      },
      "geometry": {
        "type": "Point",
        "coordinates": [
          12.5369621,
          57.9304002
        ]
      },
      "id": "node/4958269434"
    },
    {
      "type": "Feature",
      "properties": {
        "@id": "node/4979834875",
        "addr:city": "Alingsås",
        "addr:country": "SE",
        "addr:postcode": "441 30",
        "addr:street": "Stationsgatan",
        "amenity": "restaurant",
        "cuisine": "burger;fries",
        "name": "Järnvägsgrillen"
      },
      "geometry": {
        "type": "Point",
        "coordinates": [
          12.532718,
          57.9270638
        ]
      },
      "id": "node/4979834875"
    },
    {
      "type": "Feature",
      "properties": {
        "@id": "node/4990930944",
        "amenity": "restaurant",
        "cuisine": "pizza",
        "name": "Sollebrunns Pizzeria"
      },
      "geometry": {
        "type": "Point",
        "coordinates": [
          12.5329088,
          58.1201379
        ]
      },
      "id": "node/4990930944"
    },
    {
      "type": "Feature",
      "properties": {
        "@id": "node/4990930945",
        "amenity": "restaurant",
        "cuisine": "pizza",
        "name": "Pizzeria Fontana"
      },
      "geometry": {
        "type": "Point",
        "coordinates": [
          12.5327264,
          58.1177552
        ]
      },
      "id": "node/4990930945"
    },
    {
      "type": "Feature",
      "properties": {
        "@id": "node/4990979110",
        "amenity": "fast_food",
        "cuisine": "kebab;burger",
        "name": "Falafel Taim"
      },
      "geometry": {
        "type": "Point",
        "coordinates": [
          12.5325132,
          57.9276305
        ]
      },
      "id": "node/4990979110"
    },
    {
      "type": "Feature",
      "properties": {
        "@id": "node/5474358747",
        "amenity": "restaurant",
        "cuisine": "burger;pizza",
        "name": "Shit pommes frites"
      },
      "geometry": {
        "type": "Point",
        "coordinates": [
          12.5328813,
          57.9367003
        ]
      },
      "id": "node/5474358747"
    },
    {
      "type": "Feature",
      "properties": {
        "@id": "node/5683491854",
        "amenity": "restaurant",
        "cuisine": "pizza",
        "delivery": "no",
        "name": "Pizzeria kvarnen",
        "outdoor_seating": "yes",
        "takeaway": "yes"
      },
      "geometry": {
        "type": "Point",
        "coordinates": [
          12.5517545,
          57.9226789
        ]
      },
      "id": "node/5683491854"
    },
    {
      "type": "Feature",
      "properties": {
        "@id": "node/7526442203",
        "amenity": "cafe",
        "check_date": "2025-07-19",
        "contact:website": "https://www.nolbygards.se/kafe-bageri/",
        "name": "Nolbygårds Ekobageri & Kafé",
        "outdoor_seating": "yes",
        "shop": "bakery"
      },
      "geometry": {
        "type": "Point",
        "coordinates": [
          12.5562143,
          57.9416683
        ]
      },
      "id": "node/7526442203"
    },
    {
      "type": "Feature",
      "properties": {
        "@id": "node/11886103726",
        "amenity": "restaurant",
        "cuisine": "burger",
        "name": "Brödernas",
        "phone": "+4632210190",
        "website": "https://www.brodernas.nu/restauranger"
      },
      "geometry": {
        "type": "Point",
        "coordinates": [
          12.5282299,
          57.9254621
        ]
      },
      "id": "node/11886103726"
    },
    {
      "type": "Feature",
      "properties": {
        "@id": "node/11886103727",
        "addr:housenumber": "51",
        "addr:postcode": "44144",
        "addr:street": "Stadsskogsgatan",
        "amenity": "restaurant",
        "cuisine": "pizza",
        "name": "Pizzeria Franco Milano",
        "phone": "+46322640404",
        "website": "https://www.francomilano.se/"
      },
      "geometry": {
        "type": "Point",
        "coordinates": [
          12.5062804,
          57.9216168
        ]
      },
      "id": "node/11886103727"
    },
    {
      "type": "Feature",
      "properties": {
        "@id": "node/11920524418",
        "addr:city": "Alingsås",
        "addr:housenumber": "1G",
        "addr:postcode": "44157",
        "addr:street": "Kungegårdsgatan",
        "amenity": "restaurant",
        "cuisine": "burger",
        "name": "Mister York",
        "phone": "+46 105858770",
        "website": "https://misteryork.se/"
      },
      "geometry": {
        "type": "Point",
        "coordinates": [
          12.529978,
          57.9392652
        ]
      },
      "id": "node/11920524418"
    },
    {
      "type": "Feature",
      "properties": {
        "@id": "node/11920571210",
        "amenity": "restaurant",
        "cuisine": "tapas",
        "name": "Pinchos"
      },
      "geometry": {
        "type": "Point",
        "coordinates": [
          12.5318869,
          57.929173
        ]
      },
      "id": "node/11920571210"
    },
    {
      "type": "Feature",
      "properties": {
        "@id": "node/11920571213",
        "amenity": "restaurant",
        "cuisine": "pizza",
        "name": "Cyrano, Alingsås"
      },
      "geometry": {
        "type": "Point",
        "coordinates": [
          12.5317049,
          57.9288754
        ]
      },
      "id": "node/11920571213"
    },
    {
      "type": "Feature",
      "properties": {
        "@id": "node/12155355286",
        "amenity": "restaurant",
        "name": "Tillanna"
      },
      "geometry": {
        "type": "Point",
        "coordinates": [
          12.5365601,
          57.9296897
        ]
      },
      "id": "node/12155355286"
    }
  ]
}